[{"OBJECT_NAME":"STARLINK-35092","OBJECT_ID":"2025-189V","EPOCH":"2026-03-09T14:01:14.890368","MEAN_MOTION":15.30215946,"ECCENTRICITY":9.49e-5,"INCLINATION":53.1604,"RA_OF_ASC_NODE":207.0206,"ARG_OF_PERICENTER":87.1219,"MEAN_ANOMALY":272.989,"EPHEMERIS_TYPE":0,"CLASSIFICATION_TYPE":"U","NORAD_CAT_ID":65342,"ELEMENT_SET_NO":999,"REV_AT_EPOCH":3100,"BSTAR":0.0012608,"MEAN_MOTION_DOT":0.00037187,"MEAN_MOTION_DDOT":0},{"OBJECT_NAME":"COSMOS 1328","OBJECT_ID":"1981-117A","EPOCH":"2026-03-09T17:51:53.113536","MEAN_MOTION":15.33902077,"ECCENTRICITY":0.00108717,"INCLINATION":82.4939,"RA_OF_ASC_NODE":350.453,"ARG_OF_PERICENTER":167.9725,"MEAN_ANOMALY":192.1779,"EPHEMERIS_TYPE":0,"CLASSIFICATION_TYPE":"U","NORAD_CAT_ID":12987,"ELEMENT_SET_NO":999,"REV_AT_EPOCH":41406,"BSTAR":0.00040501644,"MEAN_MOTION_DOT":0.00013342,"MEAN_MOTION_DDOT":0}]
